1998-067XK              
1 65731U 98067XK  25273.90540741  .00079271  00000+0  12455-2 0  9995
2 65731  51.6325 142.9254 0000668 200.7644 159.3319 15.52934659  1782
RSP-03                  
1 65732U 98067XL  25274.03355828  .00090579  00000+0  14085-2 0  9996
2 65732  51.6322 142.2810 0000740 210.8441 149.2506 15.53163212  1819
1998-067XM              
1 65733U 98067XM  25273.96808378  .00111893  00000+0  17129-2 0  9996
2 65733  51.6322 142.5939 0003222  94.1973 265.9386 15.53489079  1809
